OSCAR 7 (AO-7)          
1 07530U 74089B   26159.28729352 -.00000040  00000+0  41755-4 0  9994
2 07530 101.9901 172.4409 0012485 146.7153 283.1449 12.53697919359406
PHASE 3B (AO-10)        
1 14129U 83058B   26158.17238870 -.00000194  00000+0  00000+0 0  9992
2 14129  25.9048 221.2242 6014266 112.9115 319.2048  2.05872980295281
UOSAT 2 (UO-11)         
1 14781U 84021B   26159.16007714  .00001295  00000+0  13740-3 0  9999
2 14781  97.8053 124.8359 0006804 203.0845 157.0068 14.90761950255783
LUSAT (LO-19)           
1 20442U 90005G   26159.04225351  .00000130  00000+0  63300-4 0  9990
2 20442  98.8852 180.5956 0010666 229.5628 130.4627 14.34120497901087
EYESAT A (AO-27)        
1 22825U 93061C   26159.18945972  .00000096  00000+0  53477-4 0  9990
2 22825  98.6881 226.6059 0009382 123.0996 237.1089 14.30939932705716
ITAMSAT (IO-26)         
1 22826U 93061D   26159.10165256  .00000109  00000+0  58068-4 0  9998
2 22826  98.6828 226.4347 0010060 108.6508 251.5768 14.31366498706019
RADIO ROSTO (RS15)      
1 23439U 94085A   26159.15838368 -.00000034  00000+0  25039-3 0  9991
2 23439  64.8186 317.8186 0155675   5.5445 354.7159 11.27583625294887
JAS-2 (FO-29)           
1 24278U 96046B   26159.14317492 -.00000016  00000+0  16544-4 0  9993
2 24278  98.5249   9.2542 0350749 119.8386 243.8104 13.53273690471944
TECHSAT 1B (GO-32)      
1 25397U 98043D   26159.21376741  .00000063  00000+0  47383-4 0  9991
2 25397  99.0065 151.7461 0000556 186.8121 173.3049 14.24426650450050
ISS (ZARYA)             
1 25544U 98067A   26158.90128688  .00007994  00000+0  14961-3 0  9996
2 25544  51.6338 346.0598 0006926 145.2709 214.8733 15.49660544570312
PCSAT (NO-44)           
1 26931U 01043C   26159.00955971  .00000149  00000+0  86443-4 0  9990
2 26931  67.0513 268.0088 0006104 264.2771  95.7635 14.31952993289131
SAUDISAT 1C (SO-50)     
1 27607U 02058C   26159.18674215  .00001069  00000+0  14314-3 0  9995
2 27607  64.5503 156.8323 0075454 264.1272  95.1229 14.83027444263123
CUTE-1 (CO-55)          
1 27844U 03031E   26159.25615715  .00000298  00000+0  14775-3 0  9992
2 27844  98.6735 167.9273 0008945 204.6801 155.3951 14.24330308190408
CUBESAT XI-IV (CO-57)   
1 27848U 03031J   26158.95900341  .00000277  00000+0  14071-3 0  9990
2 27848  98.6766 167.3539 0008515 225.8669 134.1810 14.23616071190069
MOZHAETS 4 (RS22)       
1 27939U 03042A   26159.32781341  .00001016  00000+0  16478-3 0  9997
2 27939  98.3474 343.4364 0010207 301.5330 181.4516 14.73452363214246
CUBESAT XI-V            
1 28895U 05043F   26158.95798337  .00001615  00000+0  26180-3 0  9999
2 28895  98.2976 314.3867 0013088 231.5140 128.4894 14.72607812100390
CUTE-1.7+APD II (CO-65) 
1 32785U 08021C   26159.23300556  .00005519  00000+0  34936-3 0  9990
2 32785  97.8271 140.4661 0010356  64.8771 295.3530 15.09365894983840
SEEDS II (CO-66)        
1 32791U 08021J   26158.92960025  .00019726  00000+0  63151-3 0  9991
2 32791  97.7519 156.3875 0002464  31.6806 328.4582 15.32435639985877
YUBILEINY (RS30)        
1 32953U 08025A   26159.24587745 -.00000007  00000+0 -11802-3 0  9995
2 32953  82.5047   1.0031 0019244 334.0409  25.9704 12.43178724818584
KKS-1 (KISEKI)          
1 33499U 09002H   26159.14859989  .00001427  00000+0  18199-3 0  9999
2 33499  98.1193  81.4478 0007085 329.6951  30.3851 14.83101077934859
SWISSCUBE               
1 35932U 09051B   26159.00067640  .00001155  00000+0  23775-3 0  9991
2 35932  98.4042  66.7288 0005474 236.3791 123.6888 14.62465103887819
BEESAT-1                
1 35933U 09051C   26159.27915543  .00000867  00000+0  18388-3 0  9998
2 35933  98.3972  66.6661 0003902 252.4599 107.6175 14.61706375887880
ITUPSAT1                
1 35935U 09051E   26158.98819542  .00000873  00000+0  19037-3 0  9998
2 35935  98.4056  65.5723 0006074 268.4530  91.5974 14.60427678887397
XIWANG-1 (HOPE-1)       
1 36122U 09072B   26159.27598472  .00000053  00000+0  25512-3 0  9994
2 36122 100.4028 113.2507 0006779 254.2940 105.7425 13.16439914791838
O/OREOS (USA 219)       
1 37224U 10062C   26159.22211144  .00002414  00000+0  23355-3 0  9998
2 37224  71.9703 100.6454 0012377  82.7455 277.5122 14.93705882115301
JUGNU                   
1 37839U 11058B   26159.24405093  .00000426  00000+0  83200-4 0  9993
2 37839  19.9622   2.7589 0018522 337.7505 350.9134 14.13774450757752
SRMSAT                  
1 37841U 11058D   26159.20087963  .00000378  00000+0  61376-4 0  9990
2 37841  19.9708 113.8594 0011953 105.3030 101.4235 14.11573773756543
STRAND-1                
1 39090U 13009E   26159.00516149  .00000318  00000+0  12142-3 0  9997
2 39090  98.3920 339.4657 0007415 256.8127 103.2233 14.37158036695742
ZACUBE-1 (TSHEPISOSAT)  
1 39417U 13066B   26159.14203031  .00004487  00000+0  34934-3 0  9995
2 39417  97.8095 121.4299 0039988 279.5341  80.1364 15.01133704679379
GOMX-1                  
1 39430U 13066Q   26159.26561264  .00002358  00000+0  35718-3 0  9994
2 39430  97.6493   0.2910 0130100 105.8726 255.6865 14.69427317668602
